ORBCOMM FM06            
1 25118U 97084G   26164.06172309  .00001150  00000+0  34863-3 0  9995
2 25118  45.0142  72.5721 0001539 318.6233  56.4827 14.47553366493791
ORBCOMM FM04            
1 25159U 98007C   26164.91076055  .00000786  00000+0  31469-3 0  9994
2 25159 107.9627 162.6759 0041251 330.4071  29.4736 14.35735890476129
ORBCOMM FM19            
1 25415U 98046C   26164.97943182  .00000656  00000+0  25400-3 0  9996
2 25415  44.9938 258.8098 0004526 268.8726 260.9102 14.39490987456315
ORBCOMM FM20            
1 25416U 98046D   26163.98366676  .00000543  00000+0  22434-3 0  9993
2 25416  44.9943 271.4189 0002054 236.4114 123.6538 14.38061574456188
ORBCOMM FM27            
1 25481U 98053G   26164.78601443  .00000843  00000+0  31556-3 0  9994
2 25481  45.0066 351.5081 0000674 177.7264 182.3588 14.39135727449742
ORBCOMM FM32            
1 25982U 99065C   26164.74511728  .00000438  00000+0  19352-3 0  9996
2 25982  45.0137 189.5327 0004684  16.6245 343.4756 14.37126718386592
ORBCOMM FM109           
1 40086U 14040A   26162.13987668  .00000338  00000+0  10777-3 0  9990
2 40086  47.0025 120.0774 0001750 230.5593 129.5138 14.58838155633468
ORBCOMM FM114           
1 41179U 15081A   26164.28024829  .00000433  00000+0  12794-3 0  9996
2 41179  47.0060  20.4759 0002252 192.2086 167.8745 14.58854678557187
ORBCOMM FM110           
1 41182U 15081D   26164.88507610  .00000665  00000+0  17689-3 0  9995
2 41182  47.0032  17.0560 0002606  55.8487 304.2646 14.58876174557142
ORBCOMM FM118           
1 41183U 15081E   26163.89202560  .00002535  00000+0  57212-3 0  9996
2 41183  47.0079  22.0820 0002929  12.9133 347.1827 14.58879544557106
ORBCOMM FM112           
1 41184U 15081F   26164.65000794  .00000587  00000+0  16034-3 0  9999
2 41184  46.9999 286.9739 0003525 202.8918 157.1811 14.58899589558430
ORBCOMM FM113           
1 41185U 15081G   26163.05131900  .00000335  00000+0  10705-3 0  9997
2 41185  47.0017 294.9070 0001998 204.7602 155.3188 14.58853293558185
ORBCOMM FM108           
1 41187U 15081J   26164.38348595  .00000377  00000+0  11596-3 0  9991
2 41187  47.0056 200.1825 0002734 209.5581 150.5151 14.58866983559521
ORBCOMM FM117           
1 41188U 15081K   26164.82839462  .00000325  00000+0  10492-3 0  9996
2 41188  46.9996 196.7126 0003310 211.3571 148.7118 14.58863203559634
ORBCOMM FM116           
1 41189U 15081L   26164.60342551  .00000607  00000+0  16447-3 0  9990
2 41189  47.0030 287.5669 0000723  35.5355 324.5579 14.58878344558410
